[{"OBJECT_NAME":"FALCONSAT-10","OBJECT_ID":"2023-174AM","EPOCH":"2026-03-09T16:51:34.085376","MEAN_MOTION":15.26670596,"ECCENTRICITY":0.00089318,"INCLINATION":97.3865,"RA_OF_ASC_NODE":145.7938,"ARG_OF_PERICENTER":169.5942,"MEAN_ANOMALY":190.5483,"EPHEMERIS_TYPE":0,"CLASSIFICATION_TYPE":"U","NORAD_CAT_ID":58291,"ELEMENT_SET_NO":999,"REV_AT_EPOCH":12958,"BSTAR":0.00025968794,"MEAN_MOTION_DOT":6.748e-5,"MEAN_MOTION_DDOT":0},{"OBJECT_NAME":"STARLINK-36489","OBJECT_ID":"2026-002Z","EPOCH":"2026-03-09T09:46:51.624480","MEAN_MOTION":15.27574438,"ECCENTRICITY":3.691e-5,"INCLINATION":42.9947,"RA_OF_ASC_NODE":327.0375,"ARG_OF_PERICENTER":316.9238,"MEAN_ANOMALY":43.1584,"EPHEMERIS_TYPE":0,"CLASSIFICATION_TYPE":"U","NORAD_CAT_ID":67328,"ELEMENT_SET_NO":999,"REV_AT_EPOCH":1119,"BSTAR":0.00086386729,"MEAN_MOTION_DOT":0.00023582,"MEAN_MOTION_DDOT":0}]
